[{"OBJECT_NAME":"YAOGAN-43 01D","OBJECT_ID":"2024-148D","EPOCH":"2026-03-09T10:27:16.254720","MEAN_MOTION":15.28369377,"ECCENTRICITY":0.00025569,"INCLINATION":35.001,"RA_OF_ASC_NODE":61.7102,"ARG_OF_PERICENTER":326.2473,"MEAN_ANOMALY":33.808,"EPHEMERIS_TYPE":0,"CLASSIFICATION_TYPE":"U","NORAD_CAT_ID":60461,"ELEMENT_SET_NO":999,"REV_AT_EPOCH":8700,"BSTAR":0.00037765912,"MEAN_MOTION_DOT":0.00010676,"MEAN_MOTION_DDOT":0},{"OBJECT_NAME":"STARLINK-35990","OBJECT_ID":"2025-278B","EPOCH":"2026-03-09T12:08:00.109248","MEAN_MOTION":15.27586169,"ECCENTRICITY":9.933e-5,"INCLINATION":42.9974,"RA_OF_ASC_NODE":115.1677,"ARG_OF_PERICENTER":201.3802,"MEAN_ANOMALY":158.7008,"EPHEMERIS_TYPE":0,"CLASSIFICATION_TYPE":"U","NORAD_CAT_ID":66792,"ELEMENT_SET_NO":999,"REV_AT_EPOCH":1518,"BSTAR":0.00085070919,"MEAN_MOTION_DOT":0.00023226,"MEAN_MOTION_DDOT":0}]
